<?xml version="1.0" encoding="UTF-8"?>
<kml xmlns="http://www.opengis.net/kml/2.2"><Document>
<name>example_site</name><Folder><name>SITE_1</name>
<Placemark><name>SITE_1</name><Point><coordinates>-43.50000000,-23.00000000,0</coordinates></Point></Placemark>
<Placemark><name>SITE_1_Buffer</name><Polygon><outerBoundaryIs><LinearRing><coordinates>-43.49951205,-23.00000000,0 -43.49951391,-22.99996085,0 -43.49951947,-22.99992200,0 -43.49952868,-22.99988375,0 -43.49954148,-22.99984638,0 -43.49955777,-22.99981018,0 -43.49957743,-22.99977542,0 -43.49960030,-22.99974237,0 -43.49962621,-22.99971129,0 -43.49965497,-22.99968240,0 -43.49968635,-22.99965593,0 -43.49972013,-22.99963207,0 -43.49975603,-22.99961102,0 -43.49979378,-22.99959292,0 -43.49983311,-22.99957793,0 -43.49987371,-22.99956615,0 -43.49991527,-22.99955767,0 -43.49995747,-22.99955255,0 -43.50000000,-22.99955084,0 -43.50004253,-22.99955255,0 -43.50008473,-22.99955767,0 -43.50012629,-22.99956615,0 -43.50016689,-22.99957793,0 -43.50020622,-22.99959292,0 -43.50024397,-22.99961102,0 -43.50027987,-22.99963207,0 -43.50031365,-22.99965593,0 -43.50034503,-22.99968240,0 -43.50037379,-22.99971129,0 -43.50039970,-22.99974237,0 -43.50042257,-22.99977542,0 -43.50044223,-22.99981018,0 -43.50045852,-22.99984638,0 -43.50047132,-22.99988375,0 -43.50048053,-22.99992200,0 -43.50048609,-22.99996085,0 -43.50048795,-23.00000000,0 -43.50048609,-23.00003915,0 -43.50048053,-23.00007800,0 -43.50047132,-23.00011625,0 -43.50045852,-23.00015362,0 -43.50044223,-23.00018982,0 -43.50042257,-23.00022458,0 -43.50039970,-23.00025763,0 -43.50037379,-23.00028871,0 -43.50034503,-23.00031760,0 -43.50031365,-23.00034407,0 -43.50027987,-23.00036793,0 -43.50024397,-23.00038898,0 -43.50020622,-23.00040708,0 -43.50016689,-23.00042207,0 -43.50012629,-23.00043385,0 -43.50008473,-23.00044233,0 -43.50004253,-23.00044745,0 -43.50000000,-23.00044916,0 -43.49995747,-23.00044745,0 -43.49991527,-23.00044233,0 -43.49987371,-23.00043385,0 -43.49983311,-23.00042207,0 -43.49979378,-23.00040708,0 -43.49975603,-23.00038898,0 -43.49972013,-23.00036793,0 -43.49968635,-23.00034407,0 -43.49965497,-23.00031760,0 -43.49962621,-23.00028871,0 -43.49960030,-23.00025763,0 -43.49957743,-23.00022458,0 -43.49955777,-23.00018982,0 -43.49954148,-23.00015362,0 -43.49952868,-23.00011625,0 -43.49951947,-23.00007800,0 -43.49951391,-23.00003915,0 -43.49951205,-23.00000000,0</coordinates></LinearRing></outerBoundaryIs></Polygon></Placemark>
<Placemark><name>Sans titre - Polygone</name><description>17</description><Polygon><outerBoundaryIs><LinearRing><coordinates>-43.50078072,-23.00007636,0 -43.49921928,-23.00007636,0 -43.49921928,-23.00003144,0 -43.50078072,-23.00003144,0 -43.50078072,-23.00007636,0</coordinates></LinearRing></outerBoundaryIs></Polygon></Placemark>
<Placemark><name>Sans titre - Polygone</name><description>28</description><Polygon><outerBoundaryIs><LinearRing><coordinates>-43.49973029,-23.00066275,0 -43.49969211,-23.00065528,0 -43.49999646,-22.99933725,0 -43.50003464,-22.99934472,0 -43.49973029,-23.00066275,0</coordinates></LinearRing></outerBoundaryIs></Polygon></Placemark>
<Placemark><name>Sans titre - Polygone</name><description>17</description><Polygon><outerBoundaryIs><LinearRing><coordinates>-43.50044891,-22.99983830,0 -43.50007807,-22.99983830,0 -43.50007807,-22.99979339,0 -43.50039036,-22.99979339,0 -43.50039036,-22.99958677,0 -43.50044891,-22.99958677,0 -43.50044891,-22.99983830,0</coordinates></LinearRing></outerBoundaryIs></Polygon></Placemark>
<Placemark><name>Sans titre - Polygone</name><description>3</description><Polygon><outerBoundaryIs><LinearRing><coordinates>-43.50041963,-22.99984729,0 -43.50008783,-22.99984729,0 -43.50008783,-22.99961372,0 -43.50041963,-22.99961372,0 -43.50041963,-22.99984729,0</coordinates></LinearRing></outerBoundaryIs></Polygon></Placemark>
<Placemark><name>Sans titre - Polygone</name><description>12</description><Polygon><outerBoundaryIs><LinearRing><coordinates>-43.49981458,-22.99982034,0 -43.49959988,-22.99982034,0 -43.49959988,-22.99964067,0 -43.49981458,-22.99964067,0 -43.49981458,-22.99982034,0</coordinates></LinearRing></outerBoundaryIs></Polygon></Placemark>
<Placemark><name>Sans titre - Polygone</name><description>13</description><Polygon><outerBoundaryIs><LinearRing><coordinates>-43.50042939,-23.00034136,0 -43.50023421,-23.00034136,0 -43.50023421,-23.00019763,0 -43.50042939,-23.00019763,0 -43.50042939,-23.00034136,0</coordinates></LinearRing></outerBoundaryIs></Polygon></Placemark>
<Placemark><name>Sans titre - Polygone</name><description>21</description><Polygon><outerBoundaryIs><LinearRing><coordinates>-43.50050842,-23.00025174,0 -43.50041926,-23.00026360,0 -43.50040917,-23.00019935,0 -43.50049834,-23.00018749,0 -43.50050842,-23.00025174,0</coordinates></LinearRing></outerBoundaryIs></Polygon></Placemark>
<Placemark><name>Sans titre - Polygone</name><description>25</description><Polygon><outerBoundaryIs><LinearRing><coordinates>-43.50049997,-22.99992658,0 -43.50040707,-22.99992978,0 -43.50040356,-22.99984342,0 -43.50049646,-22.99984023,0 -43.50049997,-22.99992658,0</coordinates></LinearRing></outerBoundaryIs></Polygon></Placemark>
<Placemark><name>Sans titre - Polygone</name><description>24</description><Polygon><outerBoundaryIs><LinearRing><coordinates>-43.50052945,-22.99981529,0 -43.50044171,-22.99982324,0 -43.50043305,-22.99974229,0 -43.50052079,-22.99973433,0 -43.50052945,-22.99981529,0</coordinates></LinearRing></outerBoundaryIs></Polygon></Placemark>
<Placemark><name>Sans titre - Polygone</name><description>6</description><Polygon><outerBoundaryIs><LinearRing><coordinates>-43.50051092,-22.99971739,0 -43.50040401,-22.99971364,0 -43.50040683,-22.99964559,0 -43.50051374,-22.99964934,0 -43.50051092,-22.99971739,0</coordinates></LinearRing></outerBoundaryIs></Polygon></Placemark>
<Placemark><name>Sans titre - Polygone</name><description>10</description><Polygon><outerBoundaryIs><LinearRing><coordinates>-43.50039431,-23.00046772,0 -43.50030623,-23.00047687,0 -43.50029962,-23.00042302,0 -43.50038770,-23.00041386,0 -43.50039431,-23.00046772,0</coordinates></LinearRing></outerBoundaryIs></Polygon></Placemark>
<Placemark><name>Sans titre - Polygone</name><description>25</description><Polygon><outerBoundaryIs><LinearRing><coordinates>-43.50038675,-23.00034606,0 -43.50029339,-23.00036234,0 -43.50028011,-23.00029780,0 -43.50037347,-23.00028153,0 -43.50038675,-23.00034606,0</coordinates></LinearRing></outerBoundaryIs></Polygon></Placemark>
<Placemark><name>Sans titre - Polygone</name><description>5-5</description><Polygon><outerBoundaryIs><LinearRing><coordinates>-43.50041794,-22.99972250,0 -43.50031471,-22.99972343,0 -43.50031396,-22.99965324,0 -43.50041719,-22.99965230,0 -43.50041794,-22.99972250,0</coordinates></LinearRing></outerBoundaryIs></Polygon></Placemark>
<Placemark><name>Sans titre - Polygone</name><description>10</description><Polygon><outerBoundaryIs><LinearRing><coordinates>-43.50025533,-23.00035455,0 -43.50018532,-23.00034205,0 -43.50019726,-23.00028539,0 -43.50026727,-23.00029789,0 -43.50025533,-23.00035455,0</coordinates></LinearRing></outerBoundaryIs></Polygon></Placemark>
<Placemark><name>Sans titre - Polygone</name><description>4</description><Polygon><outerBoundaryIs><LinearRing><coordinates>-43.50028521,-22.99995542,0 -43.50018686,-22.99993864,0 -43.50020462,-22.99985043,0 -43.50030298,-22.99986721,0 -43.50028521,-22.99995542,0</coordinates></LinearRing></outerBoundaryIs></Polygon></Placemark>
<Placemark><name>Sans titre - Polygone</name><description>2</description><Polygon><outerBoundaryIs><LinearRing><coordinates>-43.50026405,-22.99961857,0 -43.50016086,-22.99960841,0 -43.50016845,-22.99954309,0 -43.50027164,-22.99955325,0 -43.50026405,-22.99961857,0</coordinates></LinearRing></outerBoundaryIs></Polygon></Placemark>
<Placemark><name>Sans titre - Polygone</name><description>10</description><Polygon><outerBoundaryIs><LinearRing><coordinates>-43.50013657,-23.00049869,0 -43.50005945,-23.00048200,0 -43.50008102,-23.00039754,0 -43.50015814,-23.00041423,0 -43.50013657,-23.00049869,0</coordinates></LinearRing></outerBoundaryIs></Polygon></Placemark>
<Placemark><name>Sans titre - Polygone</name><description>10-21</description><Polygon><outerBoundaryIs><LinearRing><coordinates>-43.50015824,-22.99991482,0 -43.50006795,-22.99991714,0 -43.50006598,-22.99985201,0 -43.50015627,-22.99984970,0 -43.50015824,-22.99991482,0</coordinates></LinearRing></outerBoundaryIs></Polygon></Placemark>
<Placemark><name>Sans titre - Polygone</name><description>11-22</description><Polygon><outerBoundaryIs><LinearRing><coordinates>-43.50015503,-22.99971269,0 -43.50006767,-22.99969762,0 -43.50008185,-22.99962796,0 -43.50016921,-22.99964303,0 -43.50015503,-22.99971269,0</coordinates></LinearRing></outerBoundaryIs></Polygon></Placemark>
<Placemark><name>Sans titre - Polygone</name><description>8</description><Polygon><outerBoundaryIs><LinearRing><coordinates>-43.50016865,-22.99957267,0 -43.50007318,-22.99959147,0 -43.50005964,-22.99953325,0 -43.50015511,-22.99951445,0 -43.50016865,-22.99957267,0</coordinates></LinearRing></outerBoundaryIs></Polygon></Placemark>
<Placemark><name>Sans titre - Polygone</name><description>22</description><Polygon><outerBoundaryIs><LinearRing><coordinates>-43.50001691,-23.00026122,0 -43.49994333,-23.00025428,0 -43.49995278,-23.00016932,0 -43.50002636,-23.00017626,0 -43.50001691,-23.00026122,0</coordinates></LinearRing></outerBoundaryIs></Polygon></Placemark>
<Placemark><name>Sans titre - Polygone</name><description>2</description><Polygon><outerBoundaryIs><LinearRing><coordinates>-43.50003447,-23.00015938,0 -43.49995549,-23.00015138,0 -43.49996267,-23.00009136,0 -43.50004164,-23.00009936,0 -43.50003447,-23.00015938,0</coordinates></LinearRing></outerBoundaryIs></Polygon></Placemark>
<Placemark><name>Sans titre - Polygone</name><description>4</description><Polygon><outerBoundaryIs><LinearRing><coordinates>-43.50005330,-22.99991673,0 -43.49996878,-22.99990020,0 -43.49998383,-22.99983500,0 -43.50006835,-22.99985152,0 -43.50005330,-22.99991673,0</coordinates></LinearRing></outerBoundaryIs></Polygon></Placemark>
<Placemark><name>Sans titre - Polygone</name><description>19-20</description><Polygon><outerBoundaryIs><LinearRing><coordinates>-43.50004786,-22.99981778,0 -43.49995841,-22.99982784,0 -43.49994975,-22.99976259,0 -43.50003920,-22.99975253,0 -43.50004786,-22.99981778,0</coordinates></LinearRing></outerBoundaryIs></Polygon></Placemark>
<Placemark><name>Sans titre - Polygone</name><description>8</description><Polygon><outerBoundaryIs><LinearRing><coordinates>-43.50001489,-22.99971408,0 -43.49994526,-22.99971240,0 -43.49994707,-22.99964902,0 -43.50001670,-22.99965071,0 -43.50001489,-22.99971408,0</coordinates></LinearRing></outerBoundaryIs></Polygon></Placemark>
<Placemark><name>Sans titre - Polygone</name><description>21</description><Polygon><outerBoundaryIs><LinearRing><coordinates>-43.49992617,-23.00043976,0 -43.49984403,-23.00045754,0 -43.49982827,-23.00039587,0 -43.49991041,-23.00037809,0 -43.49992617,-23.00043976,0</coordinates></LinearRing></outerBoundaryIs></Polygon></Placemark>
<Placemark><name>Sans titre - Polygone</name><description>5</description><Polygon><outerBoundaryIs><LinearRing><coordinates>-43.49993760,-23.00025606,0 -43.49985134,-23.00025422,0 -43.49985302,-23.00018754,0 -43.49993928,-23.00018938,0 -43.49993760,-23.00025606,0</coordinates></LinearRing></outerBoundaryIs></Polygon></Placemark>
<Placemark><name>Sans titre - Polygone</name><description>8</description><Polygon><outerBoundaryIs><LinearRing><coordinates>-43.49992060,-22.99992839,0 -43.49982004,-22.99990918,0 -43.49983715,-22.99983326,0 -43.49993772,-22.99985247,0 -43.49992060,-22.99992839,0</coordinates></LinearRing></outerBoundaryIs></Polygon></Placemark>
<Placemark><name>Sans titre - Polygone</name><description>19</description><Polygon><outerBoundaryIs><LinearRing><coordinates>-43.49994337,-22.99983456,0 -43.49984015,-22.99982225,0 -43.49984921,-22.99975788,0 -43.49995243,-22.99977019,0 -43.49994337,-22.99983456,0</coordinates></LinearRing></outerBoundaryIs></Polygon></Placemark>
<Placemark><name>Sans titre - Polygone</name><description>4</description><Polygon><outerBoundaryIs><LinearRing><coordinates>-43.49992775,-22.99960935,0 -43.49985079,-22.99959833,0 -43.49986245,-22.99952934,0 -43.49993940,-22.99954035,0 -43.49992775,-22.99960935,0</coordinates></LinearRing></outerBoundaryIs></Polygon></Placemark>
<Placemark><name>Sans titre - Polygone</name><description>5</description><Polygon><outerBoundaryIs><LinearRing><coordinates>-43.49980395,-22.99992282,0 -43.49971397,-22.99993079,0 -43.49970738,-22.99986768,0 -43.49979736,-22.99985971,0 -43.49980395,-22.99992282,0</coordinates></LinearRing></outerBoundaryIs></Polygon></Placemark>
<Placemark><name>Sans titre - Polygone</name><description>22</description><Polygon><outerBoundaryIs><LinearRing><coordinates>-43.49981180,-22.99981137,0 -43.49973749,-22.99980658,0 -43.49974355,-22.99972683,0 -43.49981786,-22.99973161,0 -43.49981180,-22.99981137,0</coordinates></LinearRing></outerBoundaryIs></Polygon></Placemark>
<Placemark><name>Sans titre - Polygone</name><description>6</description><Polygon><outerBoundaryIs><LinearRing><coordinates>-43.49980907,-22.99971224,0 -43.49973504,-22.99970297,0 -43.49974400,-22.99964229,0 -43.49981803,-22.99965155,0 -43.49980907,-22.99971224,0</coordinates></LinearRing></outerBoundaryIs></Polygon></Placemark>
<Placemark><name>Sans titre - Polygone</name><description>24</description><Polygon><outerBoundaryIs><LinearRing><coordinates>-43.49981642,-22.99962332,0 -43.49972347,-22.99963148,0 -43.49971486,-22.99954835,0 -43.49980781,-22.99954019,0 -43.49981642,-22.99962332,0</coordinates></LinearRing></outerBoundaryIs></Polygon></Placemark>
<Placemark><name>Sans titre - Polygone</name><description>2</description><Polygon><outerBoundaryIs><LinearRing><coordinates>-43.49970560,-23.00036022,0 -43.49960086,-23.00035470,0 -43.49960466,-23.00029376,0 -43.49970939,-23.00029928,0 -43.49970560,-23.00036022,0</coordinates></LinearRing></outerBoundaryIs></Polygon></Placemark>
<Placemark><name>Sans titre - Polygone</name><description>24</description><Polygon><outerBoundaryIs><LinearRing><coordinates>-43.49968531,-23.00025701,0 -43.49959201,-23.00025304,0 -43.49959624,-23.00016868,0 -43.49968954,-23.00017265,0 -43.49968531,-23.00025701,0</coordinates></LinearRing></outerBoundaryIs></Polygon></Placemark>
<Placemark><name>Sans titre - Polygone</name><description>5</description><Polygon><outerBoundaryIs><LinearRing><coordinates>-43.49970444,-22.99981756,0 -43.49961538,-22.99981425,0 -43.49961922,-22.99972646,0 -43.49970829,-22.99972977,0 -43.49970444,-22.99981756,0</coordinates></LinearRing></outerBoundaryIs></Polygon></Placemark>
<Placemark><name>Sans titre - Polygone</name><description>6</description><Polygon><outerBoundaryIs><LinearRing><coordinates>-43.49967740,-22.99971556,0 -43.49960190,-22.99972475,0 -43.49959034,-22.99964425,0 -43.49966584,-22.99963506,0 -43.49967740,-22.99971556,0</coordinates></LinearRing></outerBoundaryIs></Polygon></Placemark>
<Placemark><name>Sans titre - Polygone</name><description>20-8</description><Polygon><outerBoundaryIs><LinearRing><coordinates>-43.49970749,-22.99961004,0 -43.49961689,-22.99961450,0 -43.49961353,-22.99955655,0 -43.49970412,-22.99955209,0 -43.49970749,-22.99961004,0</coordinates></LinearRing></outerBoundaryIs></Polygon></Placemark>
<Placemark><name>Sans titre - Polygone</name><description>9</description><Polygon><outerBoundaryIs><LinearRing><coordinates>-43.49955985,-23.00037350,0 -43.49945910,-23.00036513,0 -43.49946684,-23.00028610,0 -43.49956759,-23.00029446,0 -43.49955985,-23.00037350,0</coordinates></LinearRing></outerBoundaryIs></Polygon></Placemark>
<Placemark><name>Sans titre - Polygone</name><description>10</description><Polygon><outerBoundaryIs><LinearRing><coordinates>-43.49958491,-23.00025017,0 -43.49948200,-23.00025257,0 -43.49948002,-23.00018086,0 -43.49958293,-23.00017846,0 -43.49958491,-23.00025017,0</coordinates></LinearRing></outerBoundaryIs></Polygon></Placemark>
<Placemark><name>Sans titre - Polygone</name><description>11</description><Polygon><outerBoundaryIs><LinearRing><coordinates>-43.49956657,-22.99971391,0 -43.49948782,-22.99970001,0 -43.49950056,-22.99963887,0 -43.49957931,-22.99965276,0 -43.49956657,-22.99971391,0</coordinates></LinearRing></outerBoundaryIs></Polygon></Placemark>
<Placemark><name>WaterTank [0:Point]</name><Point><coordinates>-43.50049483,-23.00028714,0</coordinates></Point></Placemark>
<Placemark><name>WaterTank [1:Point]</name><Point><coordinates>-43.50042437,-22.99998051,0</coordinates></Point></Placemark>
<Placemark><name>WaterTank [2:Point]</name><Point><coordinates>-43.50054567,-23.00004726,0</coordinates></Point></Placemark>
<Placemark><name>WaterTank [3:Point]</name><Point><coordinates>-43.49964113,-22.99958781,0</coordinates></Point></Placemark>
<Placemark><name>WaterTank [4:Point]</name><Point><coordinates>-43.50040592,-22.99993627,0</coordinates></Point></Placemark>
<Placemark><name>WaterTank [5:Point]</name><Point><coordinates>-43.50004492,-22.99968667,0</coordinates></Point></Placemark>
<Placemark><name>WaterTank [6:Point]</name><Point><coordinates>-43.50015050,-23.00040082,0</coordinates></Point></Placemark>
<Placemark><name>WaterTank [7:Point]</name><Point><coordinates>-43.50012973,-22.99964876,0</coordinates></Point></Placemark>
<Placemark><name>WaterTank [8:Point]</name><Point><coordinates>-43.50006660,-23.00000364,0</coordinates></Point></Placemark>
<Placemark><name>OpenWaterTank [9:Point]</name><Point><coordinates>-43.49956404,-22.99987843,0</coordinates></Point></Placemark>
<Placemark><name>WaterTank [10:Point]</name><Point><coordinates>-43.49949305,-22.99989409,0</coordinates></Point></Placemark>
<Placemark><name>WaterTank [11:Point]</name><Point><coordinates>-43.50043724,-23.00006788,0</coordinates></Point></Placemark>
<Placemark><name>WaterTank [12:Point]</name><Point><coordinates>-43.49975795,-22.99952768,0</coordinates></Point></Placemark>
<Placemark><name>WaterTank [13:Point]</name><Point><coordinates>-43.50041338,-23.00001013,0</coordinates></Point></Placemark>
<Placemark><name>WaterTank [14:Point]</name><Point><coordinates>-43.50051471,-22.99996447,0</coordinates></Point></Placemark>
<Placemark><name>WaterTank [15:Point]</name><Point><coordinates>-43.49974616,-23.00003175,0</coordinates></Point></Placemark>
<Placemark><name>WaterTank [16:Point]</name><Point><coordinates>-43.50022864,-23.00024856,0</coordinates></Point></Placemark>
<Placemark><name>WaterTank [17:Point]</name><Point><coordinates>-43.49965723,-22.99961951,0</coordinates></Point></Placemark>
<Placemark><name>WaterTank [18:Point]</name><Point><coordinates>-43.49995161,-23.00033415,0</coordinates></Point></Placemark>
<Placemark><name>WaterTank [19:Point]</name><Point><coordinates>-43.49944928,-22.99977539,0</coordinates></Point></Placemark>
<Placemark><name>OpenWaterTank [20:Point]</name><Point><coordinates>-43.49972656,-22.99960192,0</coordinates></Point></Placemark>
<Placemark><name>WaterTank [21:Point]</name><Point><coordinates>-43.49956214,-22.99983939,0</coordinates></Point></Placemark>
<Placemark><name>WaterTank [22:Point]</name><Point><coordinates>-43.50016634,-22.99987190,0</coordinates></Point></Placemark>
<Placemark><name>WaterTank [23:Point]</name><Point><coordinates>-43.50042131,-23.00008486,0</coordinates></Point></Placemark>
<Placemark><name>WaterTank [24:Point]</name><Point><coordinates>-43.50021509,-23.00024359,0</coordinates></Point></Placemark>
<Placemark><name>WaterTank [25:Point]</name><Point><coordinates>-43.50011317,-22.99989628,0</coordinates></Point></Placemark>
<Placemark><name>WaterTank [26:Point]</name><Point><coordinates>-43.50052820,-22.99992237,0</coordinates></Point></Placemark>
<Placemark><name>WaterTank [27:Point]</name><Point><coordinates>-43.49952024,-23.00002469,0</coordinates></Point></Placemark>
<Placemark><name>WaterTank [28:Point]</name><Point><coordinates>-43.50039426,-22.99988822,0</coordinates></Point></Placemark>
<Placemark><name>WaterTank [29:Point]</name><Point><coordinates>-43.50015563,-23.00043162,0</coordinates></Point></Placemark>
<Placemark><name>WaterTank [30:Point]</name><Point><coordinates>-43.50008173,-22.99977544,0</coordinates></Point></Placemark>
<Placemark><name>WaterTank [31:Point]</name><Point><coordinates>-43.50042822,-22.99967058,0</coordinates></Point></Placemark>
<Placemark><name>WaterTank [32:Point]</name><Point><coordinates>-43.49999582,-22.99978247,0</coordinates></Point></Placemark>
<Placemark><name>WaterTank [33:Point]</name><Point><coordinates>-43.49991430,-23.00048378,0</coordinates></Point></Placemark>
<Placemark><name>SwimmingPool [1:Point]</name><Point><coordinates>-43.49979506,-23.00021560,0</coordinates></Point></Placemark>
<Placemark><name>SITE_1_Parque</name><LineString><coordinates>-43.50292768,-22.99838303,0 -43.49707232,-22.99838303,0</coordinates></LineString></Placemark>
<Placemark><name>SITE_1_Avenida</name><LineString><coordinates>-43.50292768,-23.00215596,0 -43.49707232,-23.00215596,0</coordinates></LineString></Placemark>
<Placemark><name>SITE_1_Canal</name><LineString><coordinates>-43.50117107,-23.00080848,0 -43.49765785,-23.00080848,0</coordinates></LineString></Placemark>
<Placemark><name>SITE_1_Aterro</name><LineString><coordinates>-43.49609642,-22.99766438,0 -43.49492535,-22.99658640,0</coordinates></LineString></Placemark>
</Folder></Document></kml>